STARLINK-31723          
1 59553U 24074V   26068.16037374 -.00001708  00000+0 -52544-4 0  9998
2 59553  43.0038 346.4895 0001370 262.8323  97.2372 15.27587631105936
FLOCK 4G-21             
1 62651U 25009AU  26068.19487675  .00013648  00000+0  49619-3 0  9998
2 62651  97.4032 151.1274 0000465 329.5782  30.5431 15.28381075 63677
